INTELSAT 10 (IS-10)     
1 26766U 01019A   25333.47411343 -.00000038  00000+0  00000+0 0  9991
2 26766   8.5955  61.2868 0007414 216.7194 157.0552  0.99077096 43603
INTELSAT 902 (IS-902)   
1 26900U 01039A   25328.71682450 -.00000264  00000+0  00000+0 0  9994
2 26900   5.6008  74.2814 0004512 170.1727  27.4183  1.00269675 88648
INTELSAT 904 (IS-904)   
1 27380U 02007A   25333.14370969 -.00000204  00000+0  00000+0 0  9999
2 27380   6.4182  71.5878 0001256 186.3426 190.6302  1.00270755 49767
DIRECTV 5 (TEMPO 1)     
1 27426U 02023A   25333.27087883 -.00000035  00000+0  00000+0 0  9994
2 27426   4.3647  77.8129 0003437 182.5712 155.4358  1.00271263 86113
INTELSAT 905 (IS-905)   
1 27438U 02027A   25333.47948678  .00000115  00000+0  00000+0 0  9999
2 27438   6.2495  72.2077 0002858 181.9274 209.9054  1.00272086 49369
GALAXY 3C (G-3C)        
1 27445U 02030A   25333.55922064 -.00000131  00000+0  00000+0 0  9990
2 27445   3.2284  80.6441 0001359  89.2264   5.3078  1.00271014 44495
INTELSAT 906 (IS-906)   
1 27513U 02041A   25333.80478263  .00000035  00000+0  00000+0 0  9995
2 27513   5.2963  75.3841 0006084 189.3669 158.0399  1.00272471 85027
GALAXY 13 (HORIZONS-1)  
1 27954U 03044A   25333.69095480  .00000154  00000+0  00000+0 0  9993
2 27954   0.9018  86.6259 0002122 154.8960 286.0489  1.00270857 44570
