{
  "type": "FeatureCollection",
  "features": [
    {
      "type": "Feature",
      "properties": {
        "OBJECT_NAME": "INTELSAT 10 (IS-10)",
        "OBJECT_ID": "2001-019A",
        "EPOCH": "2025-11-29T11:22:43.400352",
        "MEAN_MOTION": 0.99077096,
        "ECCENTRICITY": 0.0007414,
        "INCLINATION": 8.5955,
        "RA_OF_ASC_NODE": 61.2868,
        "ARG_OF_PERICENTER": 216.7194,
        "MEAN_ANOMALY": 157.0552,
        "EPHEMERIS_TYPE": 0,
        "CLASSIFICATION_TYPE": "U",
        "NORAD_CAT_ID": 26766,
        "ELEMENT_SET_NO": 999,
        "REV_AT_EPOCH": 4360,
        "BSTAR": 0,
        "MEAN_MOTION_DOT": -3.8e-07,
        "MEAN_MOTION_DDOT": 0,
        "norad_id": 26766,
        "name": "INTELSAT 10 (IS-10)",
        "group": "intelsat",
        "longitude_deg": NaN,
        "latitude_deg": NaN,
        "alt_km": NaN,
        "orbit_class": "HEO",
        "timestamp": "2025-11-30T04:58:49.598869+00:00"
      },
      "geometry": {
        "type": "Point",
        "coordinates": [
          NaN,
          NaN
        ]
      }
    },
    {
      "type": "Feature",
      "properties": {
        "OBJECT_NAME": "INTELSAT 902 (IS-902)",
        "OBJECT_ID": "2001-039A",
        "EPOCH": "2025-11-24T17:12:13.636800",
        "MEAN_MOTION": 1.00269675,
        "ECCENTRICITY": 0.00045123,
        "INCLINATION": 5.6008,
        "RA_OF_ASC_NODE": 74.2814,
        "ARG_OF_PERICENTER": 170.1727,
        "MEAN_ANOMALY": 27.4183,
        "EPHEMERIS_TYPE": 0,
        "CLASSIFICATION_TYPE": "U",
        "NORAD_CAT_ID": 26900,
        "ELEMENT_SET_NO": 999,
        "REV_AT_EPOCH": 8864,
        "BSTAR": 0,
        "MEAN_MOTION_DOT": -2.64e-06,
        "MEAN_MOTION_DDOT": 0,
        "norad_id": 26900,
        "name": "INTELSAT 902 (IS-902)",
        "group": "intelsat",
        "longitude_deg": NaN,
        "latitude_deg": NaN,
        "alt_km": NaN,
        "orbit_class": "HEO",
        "timestamp": "2025-11-30T04:58:49.598891+00:00"
      },
      "geometry": {
        "type": "Point",
        "coordinates": [
          NaN,
          NaN
        ]
      }
    },
    {
      "type": "Feature",
      "properties": {
        "OBJECT_NAME": "INTELSAT 904 (IS-904)",
        "OBJECT_ID": "2002-007A",
        "EPOCH": "2025-11-29T03:26:56.517216",
        "MEAN_MOTION": 1.00270755,
        "ECCENTRICITY": 0.00012568,
        "INCLINATION": 6.4182,
        "RA_OF_ASC_NODE": 71.5878,
        "ARG_OF_PERICENTER": 186.3426,
        "MEAN_ANOMALY": 190.6302,
        "EPHEMERIS_TYPE": 0,
        "CLASSIFICATION_TYPE": "U",
        "NORAD_CAT_ID": 27380,
        "ELEMENT_SET_NO": 999,
        "REV_AT_EPOCH": 4976,
        "BSTAR": 0,
        "MEAN_MOTION_DOT": -2.04e-06,
        "MEAN_MOTION_DDOT": 0,
        "norad_id": 27380,
        "name": "INTELSAT 904 (IS-904)",
        "group": "intelsat",
        "longitude_deg": NaN,
        "latitude_deg": NaN,
        "alt_km": NaN,
        "orbit_class": "HEO",
        "timestamp": "2025-11-30T04:58:49.598944+00:00"
      },
      "geometry": {
        "type": "Point",
        "coordinates": [
          NaN,
          NaN
        ]
      }
    },
    {
      "type": "Feature",
      "properties": {
        "OBJECT_NAME": "DIRECTV 5 (TEMPO 1)",
        "OBJECT_ID": "2002-023A",
        "EPOCH": "2025-11-29T06:30:03.930912",
        "MEAN_MOTION": 1.00271263,
        "ECCENTRICITY": 0.00034375,
        "INCLINATION": 4.3647,
        "RA_OF_ASC_NODE": 77.8129,
        "ARG_OF_PERICENTER": 182.5712,
        "MEAN_ANOMALY": 155.4358,
        "EPHEMERIS_TYPE": 0,
        "CLASSIFICATION_TYPE": "U",
        "NORAD_CAT_ID": 27426,
        "ELEMENT_SET_NO": 999,
        "REV_AT_EPOCH": 8611,
        "BSTAR": 0,
        "MEAN_MOTION_DOT": -3.5e-07,
        "MEAN_MOTION_DDOT": 0,
        "norad_id": 27426,
        "name": "DIRECTV 5 (TEMPO 1)",
        "group": "intelsat",
        "longitude_deg": NaN,
        "latitude_deg": NaN,
        "alt_km": NaN,
        "orbit_class": "HEO",
        "timestamp": "2025-11-30T04:58:49.598957+00:00"
      },
      "geometry": {
        "type": "Point",
        "coordinates": [
          NaN,
          NaN
        ]
      }
    },
    {
      "type": "Feature",
      "properties": {
        "OBJECT_NAME": "INTELSAT 905 (IS-905)",
        "OBJECT_ID": "2002-027A",
        "EPOCH": "2025-11-29T11:30:27.657792",
        "MEAN_MOTION": 1.00272086,
        "ECCENTRICITY": 0.0002858,
        "INCLINATION": 6.2495,
        "RA_OF_ASC_NODE": 72.2077,
        "ARG_OF_PERICENTER": 181.9274,
        "MEAN_ANOMALY": 209.9054,
        "EPHEMERIS_TYPE": 0,
        "CLASSIFICATION_TYPE": "U",
        "NORAD_CAT_ID": 27438,
        "ELEMENT_SET_NO": 999,
        "REV_AT_EPOCH": 4936,
        "BSTAR": 0,
        "MEAN_MOTION_DOT": 1.15e-06,
        "MEAN_MOTION_DDOT": 0,
        "norad_id": 27438,
        "name": "INTELSAT 905 (IS-905)",
        "group": "intelsat",
        "longitude_deg": NaN,
        "latitude_deg": NaN,
        "alt_km": NaN,
        "orbit_class": "HEO",
        "timestamp": "2025-11-30T04:58:49.598964+00:00"
      },
      "geometry": {
        "type": "Point",
        "coordinates": [
          NaN,
          NaN
        ]
      }
    },
    {
      "type": "Feature",
      "properties": {
        "OBJECT_NAME": "GALAXY 3C (G-3C)",
        "OBJECT_ID": "2002-030A",
        "EPOCH": "2025-11-29T13:25:16.663296",
        "MEAN_MOTION": 1.00271014,
        "ECCENTRICITY": 0.0001359,
        "INCLINATION": 3.2284,
        "RA_OF_ASC_NODE": 80.6441,
        "ARG_OF_PERICENTER": 89.2264,
        "MEAN_ANOMALY": 5.3078,
        "EPHEMERIS_TYPE": 0,
        "CLASSIFICATION_TYPE": "U",
        "NORAD_CAT_ID": 27445,
        "ELEMENT_SET_NO": 999,
        "REV_AT_EPOCH": 4449,
        "BSTAR": 0,
        "MEAN_MOTION_DOT": -1.31e-06,
        "MEAN_MOTION_DDOT": 0,
        "norad_id": 27445,
        "name": "GALAXY 3C (G-3C)",
        "group": "intelsat",
        "longitude_deg": NaN,
        "latitude_deg": NaN,
        "alt_km": NaN,
        "orbit_class": "HEO",
        "timestamp": "2025-11-30T04:58:49.598971+00:00"
      },
      "geometry": {
        "type": "Point",
        "coordinates": [
          NaN,
          NaN
        ]
      }
    },
    {
      "type": "Feature",
      "properties": {
        "OBJECT_NAME": "INTELSAT 906 (IS-906)",
        "OBJECT_ID": "2002-041A",
        "EPOCH": "2025-11-29T19:18:53.219232",
        "MEAN_MOTION": 1.00272471,
        "ECCENTRICITY": 0.0006084,
        "INCLINATION": 5.2963,
        "RA_OF_ASC_NODE": 75.3841,
        "ARG_OF_PERICENTER": 189.3669,
        "MEAN_ANOMALY": 158.0399,
        "EPHEMERIS_TYPE": 0,
        "CLASSIFICATION_TYPE": "U",
        "NORAD_CAT_ID": 27513,
        "ELEMENT_SET_NO": 999,
        "REV_AT_EPOCH": 8502,
        "BSTAR": 0,
        "MEAN_MOTION_DOT": 3.5e-07,
        "MEAN_MOTION_DDOT": 0,
        "norad_id": 27513,
        "name": "INTELSAT 906 (IS-906)",
        "group": "intelsat",
        "longitude_deg": NaN,
        "latitude_deg": NaN,
        "alt_km": NaN,
        "orbit_class": "HEO",
        "timestamp": "2025-11-30T04:58:49.598990+00:00"
      },
      "geometry": {
        "type": "Point",
        "coordinates": [
          NaN,
          NaN
        ]
      }
    },
    {
      "type": "Feature",
      "properties": {
        "OBJECT_NAME": "GALAXY 13 (HORIZONS-1)",
        "OBJECT_ID": "2003-044A",
        "EPOCH": "2025-11-29T16:34:58.494720",
        "MEAN_MOTION": 1.00270857,
        "ECCENTRICITY": 0.0002122,
        "INCLINATION": 0.9018,
        "RA_OF_ASC_NODE": 86.6259,
        "ARG_OF_PERICENTER": 154.896,
        "MEAN_ANOMALY": 286.0489,
        "EPHEMERIS_TYPE": 0,
        "CLASSIFICATION_TYPE": "U",
        "NORAD_CAT_ID": 27954,
        "ELEMENT_SET_NO": 999,
        "REV_AT_EPOCH": 4457,
        "BSTAR": 0,
        "MEAN_MOTION_DOT": 1.54e-06,
        "MEAN_MOTION_DDOT": 0,
        "norad_id": 27954,
        "name": "GALAXY 13 (HORIZONS-1)",
        "group": "intelsat",
        "longitude_deg": NaN,
        "latitude_deg": NaN,
        "alt_km": NaN,
        "orbit_class": "HEO",
        "timestamp": "2025-11-30T04:58:49.599155+00:00"
      },
      "geometry": {
        "type": "Point",
        "coordinates": [
          NaN,
          NaN
        ]
      }
    }
  ]
}